{"type": "FeatureCollection", "features": [ {"type": "Feature", "properties": {"norad_id": 46440, "name": "FENGYUN 1C DEB", "group": "fengyun-1c-debris", "lat": -15.506762905969078, "lon": -173.8618724973388, "alt_km": 738.3574759493586, "timestamp": "2025-12-07T09:35:10.081063+00:00", "meta": {"OBJECT_NAME": "FENGYUN 1C DEB", "OBJECT_ID": "1999-025EYV", "EPOCH": "2025-11-30T21:42:54.078912", "MEAN_MOTION": 14.20290607, "ECCENTRICITY": 0.0175806, "INCLINATION": 98.5947, "RA_OF_ASC_NODE": 2.2289, "ARG_OF_PERICENTER": 169.3708, "MEAN_ANOMALY": 316.1091, "EPHEMERIS_TYPE": 0, "CLASSIFICATION_TYPE": "U", "NORAD_CAT_ID": 46440, "ELEMENT_SET_NO": 999, "REV_AT_EPOCH": 62201, "BSTAR": 0.00034066806, "MEAN_MOTION_DOT": 8.08e-06, "MEAN_MOTION_DDOT": 0}, "tle": {"line1": "1 46440U 99025EYV 25334.90479258  .00000808  00000+0  34067-3 0  9992", "line2": "2 46440  98.5947   2.2289 0175806 169.3708 316.1091 14.20290607622019"}}, "geometry": {"type": "Point", "coordinates": [-173.8618724973388, -15.506762905969078]}}, {"type": "Feature", "properties": {"norad_id": 46443, "name": "FENGYUN 1C DEB", "group": "fengyun-1c-debris", "lat": -31.95065303924652, "lon": -137.66310274290157, "alt_km": 927.8838176700365, "timestamp": "2025-12-07T09:35:10.081073+00:00", "meta": {"OBJECT_NAME": "FENGYUN 1C DEB", "OBJECT_ID": "1999-025EYY", "EPOCH": "2025-12-06T03:46:52.230144", "MEAN_MOTION": 14.10780254, "ECCENTRICITY": 0.00966861, "INCLINATION": 99.2162, "RA_OF_ASC_NODE": 46.8752, "ARG_OF_PERICENTER": 14.7934, "MEAN_ANOMALY": 14.1284, "EPHEMERIS_TYPE": 0, "CLASSIFICATION_TYPE": "U", "NORAD_CAT_ID": 46443, "ELEMENT_SET_NO": 999, "REV_AT_EPOCH": 59503, "BSTAR": 0.0025809567, "MEAN_MOTION_DOT": 4.781e-05, "MEAN_MOTION_DDOT": 0}, "tle": {"line1": "1 46443U 99025EYY 25340.15754896  .00004781  00000+0  25810-2 0  9992", "line2": "2 46443  99.2162  46.8752 0096686  14.7934  14.1284 14.10780254595031"}}, "geometry": {"type": "Point", "coordinates": [-137.66310274290157, -31.95065303924652]}}, {"type": "Feature", "properties": {"norad_id": 46444, "name": "FENGYUN 1C DEB", "group": "fengyun-1c-debris", "lat": -58.126139021660734, "lon": -2.5325299956439675, "alt_km": 850.2101209321954, "timestamp": "2025-12-07T09:35:10.081084+00:00", "meta": {"OBJECT_NAME": "FENGYUN 1C DEB", "OBJECT_ID": "1999-025EYZ", "EPOCH": "2025-12-06T07:00:57.282624", "MEAN_MOTION": 14.27131481, "ECCENTRICITY": 0.008372, "INCLINATION": 98.5117, "RA_OF_ASC_NODE": 342.454, "ARG_OF_PERICENTER": 169.7259, "MEAN_ANOMALY": 205.8382, "EPHEMERIS_TYPE": 0, "CLASSIFICATION_TYPE": "U", "NORAD_CAT_ID": 46444, "ELEMENT_SET_NO": 999, "REV_AT_EPOCH": 62490, "BSTAR": 0.00087017371, "MEAN_MOTION_DOT": 2.161e-05, "MEAN_MOTION_DDOT": 0}, "tle": {"line1": "1 46444U 99025EYZ 25340.29232966  .00002161  00000+0  87017-3 0  9995", "line2": "2 46444  98.5117 342.4540 0083720 169.7259 205.8382 14.27131481624907"}}, "geometry": {"type": "Point", "coordinates": [-2.5325299956439675, -58.126139021660734]}}, {"type": "Feature", "properties": {"norad_id": 46449, "name": "FENGYUN 1C DEB", "group": "fengyun-1c-debris", "lat": -66.98373087039744, "lon": 174.92371093063215, "alt_km": 719.2985781092266, "timestamp": "2025-12-07T09:35:10.081094+00:00", "meta": {"OBJECT_NAME": "FENGYUN 1C DEB", "OBJECT_ID": "1999-025EZE", "EPOCH": "2025-11-27T19:57:02.428704", "MEAN_MOTION": 14.19021773, "ECCENTRICITY": 0.02029501, "INCLINATION": 98.6463, "RA_OF_ASC_NODE": 6.5721, "ARG_OF_PERICENTER": 314.0231, "MEAN_ANOMALY": 44.4375, "EPHEMERIS_TYPE": 0, "CLASSIFICATION_TYPE": "U", "NORAD_CAT_ID": 46449, "ELEMENT_SET_NO": 999, "REV_AT_EPOCH": 57425, "BSTAR": 0.00050383916, "MEAN_MOTION_DOT": 1.244e-05, "MEAN_MOTION_DDOT": 0}, "tle": {"line1": "1 46449U 99025EZE 25331.83127811  .00001244  00000+0  50384-3 0  9990", "line2": "2 46449  98.6463   6.5721 0202950 314.0231  44.4375 14.19021773574253"}}, "geometry": {"type": "Point", "coordinates": [174.92371093063215, -66.98373087039744]}}, {"type": "Feature", "properties": {"norad_id": 46450, "name": "FENGYUN 1C DEB", "group": "fengyun-1c-debris", "lat": -13.92591500926192, "lon": -159.34312266903294, "alt_km": 884.1093461555956, "timestamp": "2025-12-07T09:35:10.081104+00:00", "meta": {"OBJECT_NAME": "FENGYUN 1C DEB", "OBJECT_ID": "1999-025EZF", "EPOCH": "2025-12-05T08:02:04.531488", "MEAN_MOTION": 14.03487507, "ECCENTRICITY": 0.0182173, "INCLINATION": 98.079, "RA_OF_ASC_NODE": 196.8025, "ARG_OF_PERICENTER": 82.0832, "MEAN_ANOMALY": 280.097, "EPHEMERIS_TYPE": 0, "CLASSIFICATION_TYPE": "U", "NORAD_CAT_ID": 46450, "ELEMENT_SET_NO": 999, "REV_AT_EPOCH": 61015, "BSTAR": 0.0037253219, "MEAN_MOTION_DOT": 6.729e-05, "MEAN_MOTION_DDOT": 0}, "tle": {"line1": "1 46450U 99025EZF 25339.33477467  .00006729  00000+0  37253-2 0  9992", "line2": "2 46450  98.0790 196.8025 0182173  82.0832 280.0970 14.03487507610158"}}, "geometry": {"type": "Point", "coordinates": [-159.34312266903294, -13.92591500926192]}}, {"type": "Feature", "properties": {"norad_id": 46451, "name": "FENGYUN 1C DEB", "group": "fengyun-1c-debris", "lat": -3.7150479396471145, "lon": 1.5543185404883701, "alt_km": 939.1843923508104, "timestamp": "2025-12-07T09:35:10.081114+00:00", "meta": {"OBJECT_NAME": "FENGYUN 1C DEB", "OBJECT_ID": "1999-025EZG", "EPOCH": "2025-12-06T08:19:16.866336", "MEAN_MOTION": 14.20265955, "ECCENTRICITY": 0.01713541, "INCLINATION": 98.1565, "RA_OF_ASC_NODE": 0.0492, "ARG_OF_PERICENTER": 204.5085, "MEAN_ANOMALY": 171.6442, "EPHEMERIS_TYPE": 0, "CLASSIFICATION_TYPE": "U", "NORAD_CAT_ID": 46451, "ELEMENT_SET_NO": 999, "REV_AT_EPOCH": 56916, "BSTAR": 0.0047466269, "MEAN_MOTION_DOT": 0.00011737, "MEAN_MOTION_DDOT": 0}, "tle": {"line1": "1 46451U 99025EZG 25340.34672299  .00011737  00000+0  47466-2 0  9998", "line2": "2 46451  98.1565   0.0492 0171354 204.5085 171.6442 14.20265955569167"}}, "geometry": {"type": "Point", "coordinates": [1.5543185404883701, -3.7150479396471145]}}, {"type": "Feature", "properties": {"norad_id": 46468, "name": "FENGYUN 1C DEB", "group": "fengyun-1c-debris", "lat": 29.333967207281578, "lon": -105.84296301053759, "alt_km": 810.8455055667973, "timestamp": "2025-12-07T09:35:10.081124+00:00", "meta": {"OBJECT_NAME": "FENGYUN 1C DEB", "OBJECT_ID": "1999-025EZK", "EPOCH": "2025-12-05T11:40:56.057088", "MEAN_MOTION": 14.24624846, "ECCENTRICITY": 0.00454022, "INCLINATION": 98.8836, "RA_OF_ASC_NODE": 67.1806, "ARG_OF_PERICENTER": 250.6717, "MEAN_ANOMALY": 176.0596, "EPHEMERIS_TYPE": 0, "CLASSIFICATION_TYPE": "U", "NORAD_CAT_ID": 46468, "ELEMENT_SET_NO": 999, "REV_AT_EPOCH": 73713, "BSTAR": 0.0036232179, "MEAN_MOTION_DOT": 8.473e-05, "MEAN_MOTION_DDOT": 0}, "tle": {"line1": "1 46468U 99025EZK 25339.48675992  .00008473  00000+0  36232-2 0  9994", "line2": "2 46468  98.8836  67.1806 0045402 250.6717 176.0596 14.24624846737139"}}, "geometry": {"type": "Point", "coordinates": [-105.84296301053759, 29.333967207281578]}}, {"type": "Feature", "properties": {"norad_id": 46986, "name": "FENGYUN 1C DEB", "group": "fengyun-1c-debris", "lat": -75.50634923421279, "lon": 151.20646382104823, "alt_km": 677.8370235365364, "timestamp": "2025-12-07T09:35:10.081135+00:00", "meta": {"OBJECT_NAME": "FENGYUN 1C DEB", "OBJECT_ID": "1999-025EZL", "EPOCH": "2025-12-01T08:01:27.390720", "MEAN_MOTION": 14.47112781, "ECCENTRICITY": 0.01038428, "INCLINATION": 98.2357, "RA_OF_ASC_NODE": 359.3803, "ARG_OF_PERICENTER": 247.048, "MEAN_ANOMALY": 111.973, "EPHEMERIS_TYPE": 0, "CLASSIFICATION_TYPE": "U", "NORAD_CAT_ID": 46986, "ELEMENT_SET_NO": 999, "REV_AT_EPOCH": 63235, "BSTAR": 0.00048896767, "MEAN_MOTION_DOT": 1.859e-05, "MEAN_MOTION_DDOT": 0}, "tle": {"line1": "1 46986U 99025EZL 25335.33434480  .00001859  00000+0  48897-3 0  9996", "line2": "2 46986  98.2357 359.3803 0103842 247.0480 111.9730 14.47112781632350"}}, "geometry": {"type": "Point", "coordinates": [151.20646382104823, -75.50634923421279]}}, {"type": "Feature", "properties": {"norad_id": 46989, "name": "FENGYUN 1C DEB", "group": "fengyun-1c-debris", "lat": -26.98259647700818, "lon": -41.748466327137976, "alt_km": 1112.5656925426592, "timestamp": "2025-12-07T09:35:10.081156+00:00", "meta": {"OBJECT_NAME": "FENGYUN 1C DEB", "OBJECT_ID": "1999-025EZP", "EPOCH": "2025-12-01T09:56:49.877952", "MEAN_MOTION": 13.7915922, "ECCENTRICITY": 0.02374727, "INCLINATION": 99.5096, "RA_OF_ASC_NODE": 137.1371, "ARG_OF_PERICENTER": 7.3744, "MEAN_ANOMALY": 21.4435, "EPHEMERIS_TYPE": 0, "CLASSIFICATION_TYPE": "U", "NORAD_CAT_ID": 46989, "ELEMENT_SET_NO": 999, "REV_AT_EPOCH": 70886, "BSTAR": 0.0040160764, "MEAN_MOTION_DOT": 5.034e-05, "MEAN_MOTION_DDOT": 0}, "tle": {"line1": "1 46989U 99025EZP 25335.41446618  .00005034  00000+0  40161-2 0  9998", "line2": "2 46989  99.5096 137.1371 0237472   7.3744  21.4435 13.79159220708866"}}, "geometry": {"type": "Point", "coordinates": [-41.748466327137976, -26.98259647700818]}}, {"type": "Feature", "properties": {"norad_id": 46990, "name": "FENGYUN 1C DEB", "group": "fengyun-1c-debris", "lat": -25.70051769321962, "lon": 1.8511667023962024, "alt_km": 977.6940370485927, "timestamp": "2025-12-07T09:35:10.081168+00:00", "meta": {"OBJECT_NAME": "FENGYUN 1C DEB", "OBJECT_ID": "1999-025EZQ", "EPOCH": "2025-12-06T08:10:02.409024", "MEAN_MOTION": 14.23662061, "ECCENTRICITY": 0.03583683, "INCLINATION": 98.2315, "RA_OF_ASC_NODE": 184.8522, "ARG_OF_PERICENTER": 79.2421, "MEAN_ANOMALY": 98.3113, "EPHEMERIS_TYPE": 0, "CLASSIFICATION_TYPE": "U", "NORAD_CAT_ID": 46990, "ELEMENT_SET_NO": 999, "REV_AT_EPOCH": 8438, "BSTAR": 0.0037020871, "MEAN_MOTION_DOT": 0.00016467, "MEAN_MOTION_DDOT": 0}, "tle": {"line1": "1 46990U 99025EZQ 25340.34030566  .00016467  00000+0  37021-2 0  9992", "line2": "2 46990  98.2315 184.8522 0358368  79.2421  98.3113 14.23662061 84385"}}, "geometry": {"type": "Point", "coordinates": [1.8511667023962024, -25.70051769321962]}}]}